OBJECT_NAME,OBJECT_ID,EPOCH,MEAN_MOTION,ECCENTRICITY,INCLINATION,RA_OF_ASC_NODE,ARG_OF_PERICENTER,MEAN_ANOMALY,EPHEMERIS_TYPE,CLASSIFICATION_TYPE,NORAD_CAT_ID,ELEMENT_SET_NO,REV_AT_EPOCH,BSTAR,MEAN_MOTION_DOT,MEAN_MOTION_DDOT
STARLINK-34453,2025-130D,2026-05-11T04:00:00.999936,15.34404079,.00012043,53.1611,158.3512,76.7488,96.3923,0,U,64441,999,560,-.30457368E-3,-.10654E-3,0
STARLINK-34404,2025-130E,2026-05-10T08:24:47.036160,15.30199374,.00013721,53.1601,162.1271,91.1456,268.9702,0,U,64442,999,5014,.35350304E-3,.10125E-3,0
STARLINK-34403,2025-130F,2026-05-10T09:28:26.527008,15.30199046,.0001107,53.1577,161.6878,83.6252,276.4875,0,U,64443,999,5015,.19492582E-3,.5418E-4,0
STARLINK-34399,2025-130G,2026-05-10T07:49:59.531808,15.34391867,.00012969,53.1595,161.9768,83.4971,276.6179,0,U,64444,999,5014,.18013443E-3,.5713E-4,0
STARLINK-34398,2025-130H,2026-05-10T08:58:12.870048,15.30198249,.00010419,53.1570,162.2722,81.6008,278.5111,0,U,64445,999,5014,.21013077E-3,.5869E-4,0
STARLINK-34402,2025-130J,2026-05-11T00:56:49.094304,15.30204453,.0001281,53.1572,158.6070,103.0340,257.0804,0,U,64446,999,5025,.22964E-3,.6449E-4,0
STARLINK-34450,2025-130K,2026-05-10T08:55:10.398432,15.30201693,.0000841,53.1570,162.2552,72.8466,287.2627,0,U,64447,999,5014,.15257951E-3,.4163E-4,0
STARLINK-34433,2025-130L,2026-05-10T09:05:48.881472,15.30194826,.00012221,53.1576,162.3045,82.5722,277.5418,0,U,64448,999,5014,.26147021E-3,.7391E-4,0
STARLINK-34459,2025-130M,2026-05-11T01:51:31.443264,15.30204236,.0001219,53.1593,158.8400,84.0670,276.0470,0,U,64449,999,5025,.39532E-3,.11369E-3,0
STARLINK-34361,2025-130N,2026-05-11T00:00:02.000160,15.34366519,.0001967,53.1608,159.0076,60.0196,330.1626,0,U,64450,999,547,.15717E-2,.53046E-3,0
STARLINK-34392,2025-130P,2026-05-10T09:02:46.327776,15.30198139,.0001109,53.1577,162.2882,88.8003,271.3124,0,U,64451,999,5014,.21764319E-3,.6092E-4,0
STARLINK-34367,2025-130Q,2026-05-10T11:08:33.404064,15.30185248,.00009409,53.1570,161.4099,81.9599,278.1509,0,U,64452,999,5015,-.1273421E-3,-.4127E-4,0
STARLINK-34221,2025-130R,2026-05-11T00:58:43.074048,15.34401274,.0001379,53.1591,158.6168,86.2094,273.9067,0,U,64453,999,5025,.38597E-3,.12687E-3,0
STARLINK-34282,2025-130S,2026-05-10T08:57:02.281248,15.31711581,.00012226,53.1585,164.3939,80.1463,279.9676,0,U,64454,999,5011,.31963714E-3,.957E-4,0
STARLINK-34295,2025-130T,2026-05-10T11:06:40.393728,15.34397756,.00010363,53.1585,161.4059,88.9786,271.1335,0,U,64455,999,5016,.38922186E-3,.12796E-3,0
STARLINK-34430,2025-130U,2026-05-11T01:04:25.195584,15.30200471,.0001195,53.1572,158.6334,92.2256,267.8882,0,U,64456,999,5025,.27978E-3,.7936E-4,0
STARLINK-34445,2025-130V,2026-05-10T09:29:50.817120,15.34397526,.00014177,53.1586,161.6929,85.0099,275.1066,0,U,64457,999,5015,.23748354E-3,.7655E-4,0
STARLINK-34439,2025-130W,2026-05-10T09:29:57.491520,15.30207481,.00010976,53.1578,161.6886,111.3463,248.7655,0,U,64458,999,5015,.12901172E-3,.3465E-4,0
STARLINK-34421,2025-130X,2026-05-11T04:00:14.836032,15.34401311,.000112,53.1578,157.9757,88.0907,272.0224,0,U,64459,999,5027,.32064E-3,.10473E-3,0
STARLINK-34423,2025-130Y,2026-05-11T01:01:22.539936,15.30207698,.0001187,53.1577,158.6201,88.3535,271.7602,0,U,64460,999,5025,.37196E-3,.10676E-3,0
STARLINK-34418,2025-130Z,2026-05-11T02:06:43.198272,15.30201533,.0001055,53.1582,158.9011,80.2603,279.8517,0,U,64461,999,5025,.35022E-3,.10028E-3,0
STARLINK-34336,2025-130AA,2026-05-10T09:17:13.361280,15.31705216,.00014188,53.1581,164.4140,90.0748,270.0416,0,U,64462,999,5011,.38413045E-3,.11575E-3,0
STARLINK-34400,2025-130AB,2026-05-10T09:20:14.796960,15.30208546,.00013447,53.1570,164.4890,73.2528,286.8621,0,U,64463,999,5011,.21441785E-3,.5998E-4,0
STARLINK-34429,2025-130AC,2026-05-10T09:17:43.797408,15.34393499,.00015013,53.1603,161.6359,77.9980,282.1191,0,U,64464,999,5015,.38517365E-3,.12657E-3,0
STARLINK-34449,2025-130AD,2026-05-11T04:00:00.999936,15.34393760,.0001012,53.1605,158.4044,85.9841,52.2962,0,U,64465,999,545,-.27782415E-3,-.9749E-4,0
COSMOS 2589,2025-131A,2026-05-10T19:03:56.713824,1.00269888,.0001253,0.0428,23.8135,112.0898,116.6658,0,U,64467,999,318,0,-.281E-5,0
CHINASAT 9C,2025-132A,2026-05-11T04:26:21.891840,1.00273674,.0002814,0.0237,258.7946,148.1822,340.7923,0,U,64470,999,377,0,-.237E-5,0
STARLINK-34493,2025-133A,2026-05-10T11:12:40.519296,15.30191222,.00011128,53.1573,190.0777,88.4365,271.6763,0,U,64472,999,5064,.28460027E-3,.8077E-4,0
STARLINK-34492,2025-133B,2026-05-11T04:22:41.741184,15.30197405,.0000834,53.1564,186.7178,33.5780,326.5273,0,U,64473,999,5075,.29176E-3,.8291E-4,0
STARLINK-34474,2025-133C,2026-05-11T04:18:08.157312,15.30203349,.000107,53.1577,186.7000,84.7088,275.4034,0,U,64474,999,5073,.25453E-3,.7187E-4,0
