STARLINK-34453          
1 64441U 25130D   26131.16667824 -.00010654  00000+0 -30457-3 0  9992
2 64441  53.1611 158.3512 0001204  76.7488  96.3923 15.34404079  5600
STARLINK-34404          
1 64442U 25130E   26130.35054440  .00010125  00000+0  35350-3 0  9995
2 64442  53.1601 162.1271 0001372  91.1456 268.9702 15.30199374 50143
STARLINK-34403          
1 64443U 25130F   26130.39475147  .00005418  00000+0  19493-3 0  9990
2 64443  53.1577 161.6878 0001107  83.6252 276.4875 15.30199046 50151
STARLINK-34399          
1 64444U 25130G   26130.32638347  .00005713  00000+0  18013-3 0  9992
2 64444  53.1595 161.9768 0001296  83.4971 276.6179 15.34391867 50145
STARLINK-34398          
1 64445U 25130H   26130.37376007  .00005869  00000+0  21013-3 0  9996
2 64445  53.1570 162.2722 0001041  81.6008 278.5111 15.30198249 50144
STARLINK-34402          
1 64446U 25130J   26131.03945711  .00006449  00000+0  22964-3 0  9996
2 64446  53.1572 158.6070 0001281 103.0340 257.0804 15.30204453 50254
STARLINK-34450          
1 64447U 25130K   26130.37164813  .00004163  00000+0  15258-3 0  9998
2 64447  53.1570 162.2552 0000841  72.8466 287.2627 15.30201693 50141
STARLINK-34433          
1 64448U 25130L   26130.37903798  .00007391  00000+0  26147-3 0  9997
2 64448  53.1576 162.3045 0001222  82.5722 277.5418 15.30194826 50142
STARLINK-34459          
1 64449U 25130M   26131.07744726  .00011369  00000+0  39532-3 0  9992
2 64449  53.1593 158.8400 0001219  84.0670 276.0470 15.30204236 50253
STARLINK-34361          
1 64450U 25130N   26131.00002315  .00053046  00000+0  15717-2 0  9994
2 64450  53.1608 159.0076 0001967  60.0196 330.1626 15.34366519  5477
STARLINK-34392          
1 64451U 25130P   26130.37692509  .00006092  00000+0  21764-3 0  9993
2 64451  53.1577 162.2882 0001109  88.8003 271.3124 15.30198139 50147
STARLINK-34367          
1 64452U 25130Q   26130.46427551 -.00004127  00000+0 -12734-3 0  9993
2 64452  53.1570 161.4099 0000940  81.9599 278.1509 15.30185248 50158
STARLINK-34221          
1 64453U 25130R   26131.04077632  .00012687  00000+0  38597-3 0  9993
2 64453  53.1591 158.6168 0001379  86.2094 273.9067 15.34401274 50259
STARLINK-34282          
1 64454U 25130S   26130.37294307  .00009570  00000+0  31964-3 0  9997
2 64454  53.1585 164.3939 0001222  80.1463 279.9676 15.31711581 50112
STARLINK-34295          
1 64455U 25130T   26130.46296752  .00012796  00000+0  38922-3 0  9999
2 64455  53.1585 161.4059 0001036  88.9786 271.1335 15.34397756 50169
STARLINK-34430          
1 64456U 25130U   26131.04473606  .00007936  00000+0  27978-3 0  9999
2 64456  53.1572 158.6334 0001195  92.2256 267.8882 15.30200471 50258
STARLINK-34445          
1 64457U 25130V   26130.39572705  .00007655  00000+0  23748-3 0  9996
2 64457  53.1586 161.6929 0001417  85.0099 275.1066 15.34397526 50157
STARLINK-34439          
1 64458U 25130W   26130.39580430  .00003465  00000+0  12901-3 0  9995
2 64458  53.1578 161.6886 0001097 111.3463 248.7655 15.30207481 50159
STARLINK-34421          
1 64459U 25130X   26131.16683838  .00010473  00000+0  32064-3 0  9997
2 64459  53.1578 157.9757 0001120  88.0907 272.0224 15.34401311 50272
STARLINK-34423          
1 64460U 25130Y   26131.04262199  .00010676  00000+0  37196-3 0  9995
2 64460  53.1577 158.6201 0001187  88.3535 271.7602 15.30207698 50250
STARLINK-34418          
1 64461U 25130Z   26131.08799998  .00010028  00000+0  35022-3 0  9999
2 64461  53.1582 158.9011 0001055  80.2603 279.8517 15.30201533 50256
STARLINK-34336          
1 64462U 25130AA  26130.38696020  .00011575  00000+0  38413-3 0  9999
2 64462  53.1581 164.4140 0001418  90.0748 270.0416 15.31705216 50117
STARLINK-34400          
1 64463U 25130AB  26130.38906015  .00005998  00000+0  21442-3 0  9994
2 64463  53.1570 164.4890 0001344  73.2528 286.8621 15.30208546 50111
STARLINK-34429          
1 64464U 25130AC  26130.38731247  .00012657  00000+0  38517-3 0  9999
2 64464  53.1603 161.6359 0001501  77.9980 282.1191 15.34393499 50157
STARLINK-34449          
1 64465U 25130AD  26131.16667824 -.00009749  00000+0 -27782-3 0  9998
2 64465  53.1605 158.4044 0001012  85.9841  52.2962 15.34393760  5453
COSMOS 2589             
1 64467U 25131A   26130.79440641 -.00000281  00000+0  00000+0 0  9996
2 64467   0.0428  23.8135 0001253 112.0898 116.6658  1.00269888  3182
CHINASAT 9C             
1 64470U 25132A   26131.18497560 -.00000237  00000+0  00000+0 0  9998
2 64470   0.0237 258.7946 0002814 148.1822 340.7923  1.00273674  3772
STARLINK-34493          
1 64472U 25133A   26130.46713564  .00008077  00000+0  28460-3 0  9999
2 64472  53.1573 190.0777 0001112  88.4365 271.6763 15.30191222 50642
STARLINK-34492          
1 64473U 25133B   26131.18242756  .00008291  00000+0  29176-3 0  9993
2 64473  53.1564 186.7178 0000834  33.5780 326.5273 15.30197405 50759
STARLINK-34474          
1 64474U 25133C   26131.17926108  .00007187  00000+0  25453-3 0  9990
2 64474  53.1577 186.7000 0001070  84.7088 275.4034 15.30203349 50730
